NORAD_CAT_ID,OBJECT_NAME,OBJECT_TYPE,EPOCH,MEAN_MOTION,ECCENTRICITY,INCLINATION,RA_OF_ASC_NODE,ARG_OF_PERICENTER,MEAN_ANOMALY,BSTAR,MEAN_MOTION_DOT,MEAN_MOTION_DDOT,TLE_LINE0,TLE_LINE1,TLE_LINE2,SEMIMAJOR_AXIS,PERIOD,APOGEE,PERIGEE,DECAYED
52334.0,STARLINK-3880,PAYLOAD,2023-01-16 04:09:46,15.08859848,0.0002018,53.2164,325.0254,41.8294,318.2852,0.00032016,4.814e-05,0.0,0 STARLINK-3880,1 52334U 22045D   23016.17345635  .00004814  00000-0  32016-3 0  9998,2 52334  53.2164 325.0254 0002018  41.8294 318.2852 15.08859848 42247,6917.82,95.436,541.081,538.289,0.0
52334.0,STARLINK-3880,PAYLOAD,2023-01-16 13:42:07,15.08837913,0.0002014,53.216,323.2422,46.9941,313.122,0.00011645,1.566e-05,0.0,0 STARLINK-3880,1 52334U 22045D   23016.57091580  .00001566  00000-0  11645-3 0  9995,2 52334  53.2160 323.2422 0002014  46.9941 313.1220 15.08837913 42300,6917.887,95.438,541.145,538.359,0.0
52334.0,STARLINK-3880,PAYLOAD,2023-01-16 20:03:41,15.08822116,0.0002108,53.2156,322.0532,54.0945,306.0243,-7.2455e-05,-1.441e-05,0.0,0 STARLINK-3880,1 52334U 22045D   23016.83589243 -.00001441  00000-0 -72455-4 0  9993,2 52334  53.2156 322.0532 0002108  54.0945 306.0243 15.08822116 42341,6917.935,95.439,541.258,538.342,0.0
52334.0,STARLINK-3880,PAYLOAD,2023-01-17 05:35:59,15.08830698,0.0002673,53.212,320.2711,16.6739,343.4341,9.9333e-05,1.292e-05,0.0,0 STARLINK-3880,1 52334U 22045D   23017.23332500  .00001292  00000-0  99333-4 0  9996,2 52334  53.2120 320.2711 0002673  16.6739 343.4341 15.08830698 42408,6917.909000000001,95.438,541.623,537.925,0.0
52334.0,STARLINK-3880,PAYLOAD,2023-01-17 13:32:53,15.08842936,0.0001278,53.2155,318.7814,56.3947,303.7167,9.4204e-05,1.212e-05,0.0,0 STARLINK-3880,1 52334U 22045D   23017.56451148  .00001212  00000-0  94204-4 0  9996,2 52334  53.2155 318.7814 0001278  56.3947 303.7167 15.08842936 42452,6917.871,95.437,540.621,538.852,0.0
52334.0,STARLINK-3880,PAYLOAD,2023-01-18 00:40:38,15.08816472,0.0001489,53.216,316.6994,71.3568,288.7586,-0.00012772,-2.319e-05,0.0,0 STARLINK-3880,1 52334U 22045D   23018.02821878 -.00002319  00000-0 -12772-3 0  9999,2 52334  53.2160 316.6994 0001489  71.3568 288.7586 15.08816472 42525,6917.951999999999,95.439,540.847,538.7869999999999,0.0
52334.0,STARLINK-3880,PAYLOAD,2023-01-18 05:26:46,15.08832391,0.0001551999999999,53.2158,315.8033,93.0917,267.0253,-0.00018422,-3.218e-05,0.0,0 STARLINK-3880,1 52334U 22045D   23018.22693202 -.00003218  00000-0 -18422-3 0  9996,2 52334  53.2158 315.8033 0001552  93.0917 267.0253 15.08832391 42559,6917.904,95.438,540.842,538.695,0.0
52334.0,STARLINK-3880,PAYLOAD,2023-01-18 22:56:00,15.08833122,0.0001453999999999,53.2152,312.539,71.548,288.567,0.00026847,3.987e-05,0.0,0 STARLINK-3880,1 52334U 22045D   23018.95556503  .00003987  00000-0  26847-3 0  9999,2 52334  53.2152 312.5390 0001454  71.5480 288.5670 15.08833122 42666,6917.901,95.438,540.7719999999999,538.761,0.0
52334.0,STARLINK-3880,PAYLOAD,2023-01-19 05:17:32,15.08863007,0.0001446,53.2155,311.3419,108.6662,251.4488,0.00045765,7.008e-05,0.0,0 STARLINK-3880,1 52334U 22045D   23019.22051227  .00007008  00000-0  45765-3 0  9991,2 52334  53.2155 311.3419 0001446 108.6662 251.4488 15.08863007 42709,6917.81,95.436,540.675,538.675,0.0
52334.0,STARLINK-3880,PAYLOAD,2023-01-20 01:57:35,15.08831831,0.0002451,53.2157,307.4769,93.2003,266.927,0.00022595,3.309e-05,0.0,0 STARLINK-3880,1 52334U 22045D   23020.08165579  .00003309  00000-0  22595-3 0  9999,2 52334  53.2157 307.4769 0002451  93.2003 266.9270 15.08831831 42834,6917.905,95.438,541.466,538.075,0.0
52334.0,STARLINK-3880,PAYLOAD,2023-01-20 11:29:54,15.08830203,0.0001515,53.2137,305.6992,80.8349,279.2815,3.4946e-06,-2.32e-06,0.0,0 STARLINK-3880,1 52334U 22045D   23020.47909892 -.00000232  00000-0  34946-5 0  9994,2 52334  53.2137 305.6992 0001515  80.8349 279.2815 15.08830203 42895,6917.91,95.438,540.823,538.727,0.0
52334.0,STARLINK-3880,PAYLOAD,2023-01-21 01:48:20,15.08856781,0.0001301,53.2135,303.018,73.7999,286.3136,0.0003461,5.227e-05,0.0,0 STARLINK-3880,1 52334U 22045D   23021.07524276  .00005227  00000-0  34610-3 0  9994,2 52334  53.2135 303.0180 0001301  73.7999 286.3136 15.08856781 42983,6917.829000000001,95.436,540.594,538.794,0.0
52334.0,STARLINK-3880,PAYLOAD,2023-01-21 11:20:40,15.088420800000002,0.000159,53.2143,301.2354,76.8285,283.2884,0.00045559,6.971e-05,0.0,0 STARLINK-3880,1 52334U 22045D   23021.47269257  .00006971  00000-0  45559-3 0  9994,2 52334  53.2143 301.2354 0001590  76.8285 283.2884 15.08842080 43048,6917.874,95.437,540.839,538.639,0.0
52334.0,STARLINK-3880,PAYLOAD,2023-01-22 12:46:50,15.08849204,0.0001486999999999,53.2127,296.48,94.5056,265.6105,0.00016123,2.28e-05,0.0,0 STARLINK-3880,1 52334U 22045D   23022.53252776  .00002280  00000-0  16123-3 0  9994,2 52334  53.2127 296.4800 0001487  94.5056 265.6105 15.08849204 43202,6917.852,95.437,540.746,538.689,0.0
52334.0,STARLINK-3880,PAYLOAD,2023-01-22 17:33:00,15.08825562,0.0001215,53.2146,295.5877,100.0979,260.015,-0.00033698,-5.645e-05,0.0,0 STARLINK-3880,1 52334U 22045D   23022.73125333 -.00005645  00000-0 -33698-3 0  9990,2 52334  53.2146 295.5877 0001215 100.0979 260.0150 15.08825562 43236,6917.925,95.438,540.63,538.9490000000001,0.0
52334.0,STARLINK-3880,PAYLOAD,2023-01-23 12:37:38,15.08834656,0.0001309,53.2122,292.0191,54.0412,306.0702,0.00059303,9.161e-05,0.0,0 STARLINK-3880,1 52334U 22045D   23023.52614063  .00009161  00000-0  59303-3 0  9997,2 52334  53.2122 292.0191 0001309  54.0412 306.0702 15.08834656 43356,6917.897,95.438,540.6669999999999,538.856,0.0
52334.0,STARLINK-3880,PAYLOAD,2023-01-24 02:56:06,15.08860514,0.0001233,53.2117,289.3415,68.6318,291.4805,0.0013074999999999,0.00020594,0.0,0 STARLINK-3880,1 52334U 22045D   23024.12229760  .00020594  00000-0  13075-2 0  9998,2 52334  53.2117 289.3415 0001233  68.6318 291.4805 15.08860514 43443,6917.818,95.436,540.536,538.83,0.0
52334.0,STARLINK-3880,PAYLOAD,2023-01-24 12:28:25,15.08847906,0.0001177,53.2117,287.5582,61.0163,299.0947,0.00049065,7.531e-05,0.0,0 STARLINK-3880,1 52334U 22045D   23024.51973876  .00007531  00000-0  49065-3 0  9990,2 52334  53.2117 287.5582 0001177  61.0163 299.0947 15.08847906 43508,6917.856,95.437,540.535,538.9069999999999,0.0
52334.0,STARLINK-3880,PAYLOAD,2023-01-25 12:19:12,15.08844067,0.0001901,53.2109,283.0995,54.2442,305.8727,0.00042758,6.524e-05,0.0,0 STARLINK-3880,1 52334U 22045D   23025.51334056  .00006524  00000-0  42758-3 0  9995,2 52334  53.2109 283.0995 0001901  54.2442 305.8727 15.08844067 43650,6917.868,95.437,541.048,538.418,0.0
52334.0,STARLINK-3880,PAYLOAD,2023-01-25 20:16:08,15.0883109,0.0001233,53.2116,281.6095,65.9162,294.1959,-4.9774e-05,-1.0800000000000002e-05,0.0,0 STARLINK-3880,1 52334U 22045D   23025.84454211 -.00001080  00000-0 -49774-4 0  9997,2 52334  53.2116 281.6095 0001233  65.9162 294.1959 15.08831090 43704,6917.908,95.438,540.626,538.92,0.0
52334.0,STARLINK-3880,PAYLOAD,2023-01-26 02:37:40,15.08845578,0.0001219,53.2118,280.418,75.217,284.8957,0.00053995,8.317e-05,0.0,0 STARLINK-3880,1 52334U 22045D   23026.10949964  .00008317  00000-0  53995-3 0  9998,2 52334  53.2118 280.4180 0001219  75.2170 284.8957 15.08845578 43749,6917.863,95.437,540.572,538.885,0.0
52334.0,STARLINK-3880,PAYLOAD,2023-01-27 02:28:27,15.0886658,0.0001335,53.2121,275.9562,68.876,291.2375,0.00094759,0.00014836,0.0,0 STARLINK-3880,1 52334U 22045D   23027.10309373  .00014836  00000-0  94759-3 0  9999,2 52334  53.2121 275.9562 0001335  68.8760 291.2375 15.08866580 43896,6917.799,95.436,540.5880000000001,538.741,0.0
52334.0,STARLINK-3880,PAYLOAD,2023-01-27 21:33:05,15.08838206,0.0001564999999999,53.2122,272.3829,107.0217,253.0946,0.0002586,3.83e-05,0.0,0 STARLINK-3880,1 52334U 22045D   23027.89797817  .00003830  00000-0  25860-3 0  9998,2 52334  53.2122 272.3829 0001565 107.0217 253.0946 15.08838206 44011,6917.886,95.438,540.8340000000001,538.668,0.0
52334.0,STARLINK-3880,PAYLOAD,2023-01-28 02:19:14,15.08841099,0.0001249,53.2122,271.4955,78.7652,281.348,0.0003228,4.853e-05,0.0,0 STARLINK-3880,1 52334U 22045D   23028.09669916  .00004853  00000-0  32280-3 0  9999,2 52334  53.2122 271.4955 0001249  78.7652 281.3480 15.08841099 44041,6917.877,95.437,540.606,538.878,0.0
52334.0,STARLINK-3880,PAYLOAD,2023-01-28 19:48:29,15.08835125,0.0001323,53.2125,268.2239,79.7545,280.3597,0.00024934,3.682e-05,0.0,0 STARLINK-3880,1 52334U 22045D   23028.82534107  .00003682  00000-0  24934-3 0  9999,2 52334  53.2125 268.2239 0001323  79.7545 280.3597 15.08835125 44151,6917.895,95.438,540.676,538.845,0.0
52334.0,STARLINK-3880,PAYLOAD,2023-01-28 21:23:52,15.08834661,0.0001309,53.2127,267.9265,78.7304,281.3836,0.00026249,3.891e-05,0.0,0 STARLINK-3880,1 52334U 22045D   23028.89158160  .00003891  00000-0  26249-3 0  9990,2 52334  53.2127 267.9265 0001309  78.7304 281.3836 15.08834661 44166,6917.897,95.438,540.667,538.856,0.0
52334.0,STARLINK-3880,PAYLOAD,2023-01-29 21:14:39,15.08840869,0.0001232,53.2122,263.4667,77.6736,282.4394,0.00011314,1.513e-05,0.0,0 STARLINK-3880,1 52334U 22045D   23029.88518289  .00001513  00000-0  11314-3 0  9998,2 52334  53.2122 263.4667 0001232  77.6736 282.4394 15.08840869 44315,6917.878,95.437,540.595,538.89,0.0
52334.0,STARLINK-3880,PAYLOAD,2023-01-30 00:25:26,15.08838034,0.0001312,53.2123,262.8714,82.4498,277.6643,0.00037019,5.608e-05,0.0,0 STARLINK-3880,1 52334U 22045D   23030.01766522  .00005608  00000-0  37019-3 0  9999,2 52334  53.2123 262.8714 0001312  82.4498 277.6643 15.08838034 44336,6917.886,95.438,540.659,538.844,0.0
52334.0,STARLINK-3880,PAYLOAD,2023-01-30 13:08:31,15.08839262,0.0001223,53.2115,260.4934,78.287,281.8259,9.9431e-05,1.295e-05,0.0,0 STARLINK-3880,1 52334U 22045D   23030.54758371  .00001295  00000-0  99431-4 0  9995,2 52334  53.2115 260.4934 0001223  78.2870 281.8259 15.08839262 44416,6917.883,95.438,540.594,538.902,0.0
